NORAD_CAT_ID,OBJECT_NAME,OBJECT_TYPE,EPOCH,MEAN_MOTION,ECCENTRICITY,INCLINATION,RA_OF_ASC_NODE,ARG_OF_PERICENTER,MEAN_ANOMALY,BSTAR,MEAN_MOTION_DOT,MEAN_MOTION_DDOT,TLE_LINE0,TLE_LINE1,TLE_LINE2,SEMIMAJOR_AXIS,PERIOD,APOGEE,PERIGEE,DECAYED
52834.0,STARLINK-4108,PAYLOAD,2024-07-18 05:20:04,15.08825352,0.0001305,53.2159,205.2364,81.9769,278.1371,-2.0926e-06,-3.21e-06,0.0,0 STARLINK-4108,1 52834U 22062E   24200.22227429 -.00000321  00000-0 -20926-5 0  9994,2 52834  53.2159 205.2364 0001305  81.9769 278.1371 15.08825352115285,6917.925,95.438,540.693,538.887,0.0
52834.0,STARLINK-4108,PAYLOAD,2024-07-18 10:06:14,15.08816965,0.0001204,53.2162,204.345,89.289,270.824,-0.00011232,-2.074e-05,0.0,0 STARLINK-4108,1 52834U 22062E   24200.42100407 -.00002074  00000-0 -11232-3 0  9997,2 52834  53.2162 204.3450 0001204  89.2890 270.8240 15.08816965115317,6917.951,95.439,540.649,538.983,0.0
52834.0,STARLINK-4108,PAYLOAD,2024-07-19 05:10:51,15.08833403,0.0001293,53.2157,200.7825,63.2795,296.8329,7.0167e-05,8.29e-06,0.0,0 STARLINK-4108,1 52834U 22062E   24201.21587529  .00000829  00000-0  70167-4 0  9996,2 52834  53.2157 200.7825 0001293  63.2795 296.8329 15.08833403115436,6917.901,95.438,540.66,538.871,0.0
52834.0,STARLINK-4108,PAYLOAD,2024-07-19 06:46:14,15.08840937,0.0001264,53.2153,200.4782,97.464,262.6496,6.9074e-05,8.12e-06,0.0,0 STARLINK-4108,1 52834U 22062E   24201.28210947  .00000812  00000-0  69074-4 0  9997,2 52834  53.2153 200.4782 0001264  97.4640 262.6496 15.08840937115444,6917.878,95.437,540.617,538.868,0.0
52834.0,STARLINK-4108,PAYLOAD,2024-07-20 06:37:01,15.08845899,0.0001272,53.2149,196.0187,105.9169,254.1964,0.00061671,9.542e-05,0.0,0 STARLINK-4108,1 52834U 22062E   24202.27571237  .00009542  00000-0  61671-3 0  9992,2 52834  53.2149 196.0187 0001272 105.9169 254.1964 15.08845899115592,6917.862,95.437,540.607,538.847,0.0
52834.0,STARLINK-4108,PAYLOAD,2024-07-20 16:09:19,15.08854493,0.0001329,53.2145,194.2344,104.207,255.9069,0.00036101,5.464e-05,0.0,0 STARLINK-4108,1 52834U 22062E   24202.67314695  .00005464  00000-0  36101-3 0  9998,2 52834  53.2145 194.2344 0001329 104.2070 255.9069 15.08854493115651,6917.836,95.437,540.62,538.782,0.0
52834.0,STARLINK-4108,PAYLOAD,2024-07-21 04:52:24,15.0884787,0.0001537,53.2165,191.8574,107.6388,252.4772,5.5228e-05,5.91e-06,0.0,0 STARLINK-4108,1 52834U 22062E   24203.20306608  .00000591  00000-0  55228-4 0  9991,2 52834  53.2165 191.8574 0001537 107.6388 252.4772 15.08847870115734,6917.856,95.437,540.785,538.658,0.0
52834.0,STARLINK-4108,PAYLOAD,2024-07-21 06:27:48,15.08847021,0.0001524,53.2164,191.5597,107.3372,252.7787,3.3662e-05,2.48e-06,0.0,0 STARLINK-4108,1 52834U 22062E   24203.26930595  .00000248  00000-0  33662-4 0  9992,2 52834  53.2164 191.5597 0001524 107.3372 252.7787 15.08847021115749,6917.859,95.437,540.778,538.67,0.0
52834.0,STARLINK-4108,PAYLOAD,2024-07-22 07:53:57,15.0884913,0.0001483,53.2173,186.8026,112.0732,248.0418,-1.7498e-06,-3.16e-06,0.0,0 STARLINK-4108,1 52834U 22062E   24204.32914335 -.00000316  00000-0 -17498-5 0  9992,2 52834  53.2173 186.8026 0001483 112.0732 248.0418 15.08849130115900,6917.852,95.437,540.743,538.692,0.0
52834.0,STARLINK-4108,PAYLOAD,2024-07-22 22:12:26,15.08840725,0.0001422,53.2166,184.1249,104.6407,255.4743,6.8005e-05,7.95e-06,0.0,0 STARLINK-4108,1 52834U 22062E   24204.92530546  .00000795  00000-0  68005-4 0  9994,2 52834  53.2166 184.1249 0001422 104.6407 255.4743 15.08840725115992,6917.878,95.438,540.727,538.759,0.0
52834.0,STARLINK-4108,PAYLOAD,2024-07-23 04:33:59,15.08839828,0.0001353,53.2159,182.9343,101.6419,258.4725,3.5348e-05,2.75e-06,0.0,0 STARLINK-4108,1 52834U 22062E   24205.19026743  .00000275  00000-0  35348-4 0  9990,2 52834  53.2159 182.9343 0001353 101.6419 258.4725 15.08839828116039,6917.881,95.438,540.682,538.81,0.0
52834.0,STARLINK-4108,PAYLOAD,2024-07-23 07:44:45,15.08842362,0.0001311,53.2155,182.3384,97.4569,262.6572,4.7104e-05,4.62e-06,0.0,0 STARLINK-4108,1 52834U 22062E   24205.32274554  .00000462  00000-0  47104-4 0  9991,2 52834  53.2155 182.3384 0001311  97.4569 262.6572 15.08842362116052,6917.873,95.437,540.645,538.831,0.0
52834.0,STARLINK-4108,PAYLOAD,2024-07-23 15:41:41,15.08831484,0.0001336,53.2155,180.8517,93.3501,266.7643,0.00012493,1.7e-05,0.0,0 STARLINK-4108,1 52834U 22062E   24205.65395177  .00001700  00000-0  12493-3 0  9990,2 52834  53.2155 180.8517 0001336  93.3501 266.7643 15.08831484116104,6917.906,95.438,540.696,538.847,0.0
52834.0,STARLINK-4108,PAYLOAD,2024-07-23 22:03:13,15.08838152,0.0001259,53.2151,179.664,91.6825,268.4311,2.3782e-06,-2.5e-06,0.0,0 STARLINK-4108,1 52834U 22062E   24205.91891081 -.00000250  00000-0  23782-5 0  9999,2 52834  53.2151 179.6640 0001259  91.6825 268.4311 15.08838152116141,6917.886,95.438,540.622,538.88,0.0
52834.0,STARLINK-4108,PAYLOAD,2024-07-24 07:35:32,15.0883969,0.0001308,53.2162,177.8768,95.4413,264.6728,1.3805e-05,-6.8e-07,0.0,0 STARLINK-4108,1 52834U 22062E   24206.31635077 -.00000068  00000-0  13805-4 0  9996,2 52834  53.2162 177.8768 0001308  95.4413 264.6728 15.08839690116209,6917.881,95.438,540.651,538.841,0.0
52834.0,STARLINK-4108,PAYLOAD,2024-07-25 04:15:32,15.08847384,0.0001344,53.2159,174.0112,86.0419,274.0727,9.6264e-05,1.245e-05,0.0,0 STARLINK-4108,1 52834U 22062E   24207.17746386  .00001245  00000-0  96264-4 0  9994,2 52834  53.2159 174.0112 0001344  86.0419 274.0727 15.08847384116336,6917.858,95.437,540.653,538.793,0.0
52834.0,STARLINK-4108,PAYLOAD,2024-07-25 07:26:18,15.08851186,0.0001415,53.2164,173.4146,100.2515,259.8636,0.0001072,1.419e-05,0.0,0 STARLINK-4108,1 52834U 22062E   24207.30994023  .00001419  00000-0  10720-3 0  9997,2 52834  53.2164 173.4146 0001415 100.2515 259.8636 15.08851186116354,6917.846,95.437,540.69,538.732,0.0
52834.0,STARLINK-4108,PAYLOAD,2024-07-26 04:06:19,15.08847308,0.0001654,53.2167,169.5453,124.5036,235.6113,1.6299e-05,-2.9e-07,0.0,0 STARLINK-4108,1 52834U 22062E   24208.17106312 -.00000029  00000-0  16299-4 0  9994,2 52834  53.2167 169.5453 0001654 124.5036 235.6113 15.08847308116483,6917.858,95.437,540.867,538.579,0.0
52834.0,STARLINK-4108,PAYLOAD,2024-07-26 21:35:34,15.08812151,0.0001861,53.2171,166.2742,113.4498,246.669,0.000416,6.334e-05,0.0,0 STARLINK-4108,1 52834U 22062E   24208.89970412  .00006334  00000-0  41600-3 0  9990,2 52834  53.2171 166.2742 0001861 113.4498 246.6690 15.08812151116594,6917.966,95.439,541.118,538.543,0.0
52834.0,STARLINK-4108,PAYLOAD,2024-07-27 03:57:06,15.08850265,0.0001326,53.2153,165.0951,102.0901,258.024,-1.3086e-07,-2.9e-06,0.0,0 STARLINK-4108,1 52834U 22062E   24209.16465991 -.00000290  00000-0 -13086-6 0  9999,2 52834  53.2153 165.0951 0001326 102.0901 258.0240 15.08850265116633,6917.849,95.437,540.631,538.797,0.0
52834.0,STARLINK-4108,PAYLOAD,2024-07-27 21:26:22,15.08833587,0.0001437,53.216,161.8196,96.2025,263.9131,-4.0516e-05,-9.33e-06,0.0,0 STARLINK-4108,1 52834U 22062E   24209.89331265 -.00000933  00000-0 -40516-4 0  9995,2 52834  53.2160 161.8196 0001437  96.2025 263.9131 15.08833587116744,6917.9,95.438,540.759,538.771,0.0
52834.0,STARLINK-4108,PAYLOAD,2024-07-28 03:47:55,15.08830708,0.0001447,53.2171,160.6361,95.766,264.3498,-8.4284e-05,-1.629e-05,0.0,0 STARLINK-4108,1 52834U 22062E   24210.15827731 -.00001629  00000-0 -84284-4 0  9997,2 52834  53.2171 160.6361 0001447  95.7660 264.3498 15.08830708116784,6917.909,95.438,540.775,538.773,0.0
52834.0,STARLINK-4108,PAYLOAD,2024-07-28 13:20:13,15.08834014,0.0001511,53.2172,158.8513,98.6592,261.4571,-8.5659e-05,-1.651e-05,0.0,0 STARLINK-4108,1 52834U 22062E   24210.55571684 -.00001651  00000-0 -85659-4 0  9996,2 52834  53.2172 158.8513 0001511  98.6592 261.4571 15.08834014116842,6917.899,95.438,540.809,538.718,0.0
52834.0,STARLINK-4108,PAYLOAD,2024-07-29 03:38:41,15.08857337,0.0001316,53.2166,156.1731,94.2908,265.8234,-0.00017757,-3.114e-05,0.0,0 STARLINK-4108,1 52834U 22062E   24211.15186636 -.00003114  00000-0 -17757-3 0  9991,2 52834  53.2166 156.1731 0001316  94.2908 265.8234 15.08857337116931,6917.827,95.436,540.603,538.782,0.0
52834.0,STARLINK-4108,PAYLOAD,2024-07-29 13:11:00,15.08834621,0.0001302,53.2164,154.3891,89.9906,270.1235,9.7701e-05,1.267e-05,0.0,0 STARLINK-4108,1 52834U 22062E   24211.54931352  .00001267  00000-0  97701-4 0  9990,2 52834  53.2164 154.3891 0001302  89.9906 270.1235 15.08834621116997,6917.897,95.438,540.663,538.861,0.0
52834.0,STARLINK-4108,PAYLOAD,2024-07-30 13:01:47,15.08842458,0.0001605,53.2174,149.925,76.3964,283.7207,0.00013353,1.838e-05,0.0,0 STARLINK-4108,1 52834U 22062E   24212.54291220  .00001838  00000-0  13353-3 0  9998,2 52834  53.2174 149.9250 0001605  76.3964 283.7207 15.08842458117141,6917.873,95.437,540.848,538.628,0.0
52834.0,STARLINK-4108,PAYLOAD,2024-07-31 12:52:34,15.08842278,0.0001458,53.2181,145.4682,90.1815,269.9344,4.1861e-05,3.78e-06,0.0,0 STARLINK-4108,1 52834U 22062E   24213.53651249  .00000378  00000-0  41861-4 0  9993,2 52834  53.2181 145.4682 0001458  90.1815 269.9344 15.08842278117298,6917.873,95.437,540.747,538.73,0.0
52834.0,STARLINK-4108,PAYLOAD,2024-07-31 19:14:07,15.0883715,0.0001606,53.2158,144.2802,91.0682,269.0495,3.1379e-05,2.11e-06,0.0,0 STARLINK-4108,1 52834U 22062E   24213.80147699  .00000211  00000-0  31379-4 0  9991,2 52834  53.2158 144.2802 0001606  91.0682 269.0495 15.08837150117336,6917.889,95.438,540.865,538.643,0.0
52834.0,STARLINK-4108,PAYLOAD,2024-08-01 01:35:40,15.08839849,0.0001843,53.2172,143.0883,88.8669,271.2535,-2.0289e-05,-6.11e-06,0.0,0 STARLINK-4108,1 52834U 22062E   24214.06643832 -.00000611  00000-0 -20289-4 0  9994,2 52834  53.2172 143.0883 0001843  88.8669 271.2535 15.08839849117371,6917.881,95.438,541.021,538.471,0.0
52834.0,STARLINK-4108,PAYLOAD,2024-08-01 12:43:21,15.08845392,0.0001863,53.2176,141.0062,89.9312,270.1894,2.2883e-05,7.6e-07,0.0,0 STARLINK-4108,1 52834U 22062E   24214.53011258  .00000076  00000-0  22883-4 0  9992,2 52834  53.2176 141.0062 0001863  89.9312 270.1894 15.08845392117445,6917.864,95.437,541.018,538.44,0.0
